NORAD_CAT_ID,OBJECT_NAME,OBJECT_TYPE,EPOCH,MEAN_MOTION,ECCENTRICITY,INCLINATION,RA_OF_ASC_NODE,ARG_OF_PERICENTER,MEAN_ANOMALY,BSTAR,MEAN_MOTION_DOT,MEAN_MOTION_DDOT,TLE_LINE0,TLE_LINE1,TLE_LINE2,SEMIMAJOR_AXIS,PERIOD,APOGEE,PERIGEE,DECAYED
51468.0,STARLINK-3174,PAYLOAD,2022-05-13 14:00:01,15.08842657,0.0001819,53.2186,66.4732,44.3635,193.7238,-0.0024404,-0.00038921,0.0,0 STARLINK-3174,1 51468U 22010N   22133.58334491 -.00038921  00000-0 -24404-2 0  9998,2 51468  53.2186  66.4732 0001819  44.3635 193.7238 15.08842657 16559,6917.871999999999,95.437,540.996,538.479,0.0
51468.0,STARLINK-3174,PAYLOAD,2022-05-13 22:00:00,15.08822076,0.0001811,53.2188,64.9777,45.5404,204.1271,-0.00067789,-0.00011055,0.0,0 STARLINK-3174,1 51468U 22010N   22133.91667824 -.00011055  00000-0 -67789-3 0  9997,2 51468  53.2188  64.9777 0001811  45.5404 204.1271 15.08822076  1306,6917.935,95.439,541.053,538.547,0.0
51468.0,STARLINK-3174,PAYLOAD,2022-05-14 06:00:00,15.08798467,0.0001989,53.219,63.4825,39.6807,221.5687,0.0037593,0.00059983,0.0,0 STARLINK-3174,1 51468U 22010N   22134.25001157  .00059983  00000-0  37593-2 0  9995,2 51468  53.2190  63.4825 0001989  39.6807 221.5687 15.08798467 16658,6918.007,95.44,541.248,538.496,0.0
51468.0,STARLINK-3174,PAYLOAD,2022-05-14 14:00:01,15.08830095,0.0001805,53.2194,61.9844,43.4081,229.4275,0.002212,0.00035082,0.0,0 STARLINK-3174,1 51468U 22010N   22134.58334491  .00035082  00000-0  22120-2 0  9995,2 51468  53.2194  61.9844 0001805  43.4081 229.4275 15.08830095  1300,6917.911,95.438,541.024,538.5269999999998,0.0
51468.0,STARLINK-3174,PAYLOAD,2022-05-14 22:00:00,15.08846602,0.0001791,53.2192,60.4893,43.6051,240.8234,-0.00072111,-0.00011748,0.0,0 STARLINK-3174,1 51468U 22010N   22134.91667824 -.00011748  00000-0 -72111-3 0  9992,2 51468  53.2192  60.4893 0001791  43.6051 240.8234 15.08846602 16757,6917.86,95.437,540.964,538.486,0.0
51468.0,STARLINK-3174,PAYLOAD,2022-05-15 14:00:01,15.08812188,0.0001706999999999,53.2201,57.4957,39.8408,267.8357,0.002778,0.00044168,0.0,0 STARLINK-3174,1 51468U 22010N   22135.58335648  .00044168  00000-0  27780-2 0  9993,2 51468  53.2201  57.4957 0001707  39.8408 267.8357 15.08812188  1307,6917.965,95.439,541.011,538.65,0.0
51468.0,STARLINK-3174,PAYLOAD,2022-05-15 22:00:00,15.08871133,0.0001803,53.2204,56.0002,42.4515,276.7428,-0.0035384,-0.00056211,0.0,0 STARLINK-3174,1 51468U 22010N   22135.91667824 -.00056211  00000-0 -35384-2 0  9997,2 51468  53.2204  56.0002 0001803  42.4515 276.7428 15.08871133  1305,6917.785,95.436,540.898,538.403,0.0
51468.0,STARLINK-3174,PAYLOAD,2022-05-16 06:00:02,15.08781375,0.0002134,53.2202,54.5051,38.9213,291.9204,0.0033544,0.00053417,0.0,0 STARLINK-3174,1 51468U 22010N   22136.25002315  .00053417  00000-0  33544-2 0  9992,2 51468  53.2202  54.5051 0002134  38.9213 291.9204 15.08781375 16960,6918.06,95.441,541.401,538.448,0.0
51468.0,STARLINK-3174,PAYLOAD,2022-05-16 14:00:01,15.08792593,0.0001926,53.2204,53.0073,44.1356,298.1982,0.0030752,0.0004893,0.0,0 STARLINK-3174,1 51468U 22010N   22136.58334491  .00048930  00000-0  30752-2 0  9993,2 51468  53.2204  53.0073 0001926  44.1356 298.1982 15.08792593  1303,6918.025,95.441,541.2230000000002,538.558,0.0
51468.0,STARLINK-3174,PAYLOAD,2022-05-16 22:00:00,15.08846547,0.0001993,53.2207,51.512,44.5352,309.3596,-0.00068419,-0.00011163,0.0,0 STARLINK-3174,1 51468U 22010N   22136.91667824 -.00011163  00000-0 -68419-3 0  9991,2 51468  53.2207  51.5120 0001993  44.5352 309.3596 15.08846547 17061,6917.86,95.437,541.104,538.347,0.0
51468.0,STARLINK-3174,PAYLOAD,2022-05-17 12:00:00,15.08869489,0.0001918,53.2204,48.8932,43.8651,240.3402,-0.00075167,-0.00012241,0.0,0 STARLINK-3174,1 51468U 22010N   22137.50001157 -.00012241  00000-0 -75167-3 0  9994,2 51468  53.2204  48.8932 0001918  43.8651 240.3402 15.08869489 17148,6917.79,95.436,540.982,538.328,0.0
51468.0,STARLINK-3174,PAYLOAD,2022-05-17 14:00:01,15.088559699999998,0.0001839,53.2203,48.5187,44.6622,332.5177,0.00072594,0.00011289,0.0,0 STARLINK-3174,1 51468U 22010N   22137.58335648  .00011289  00000-0  72594-3 0  9997,2 51468  53.2203  48.5187 0001839  44.6622 332.5177 15.08855970  1309,6917.831999999999,95.437,540.969,538.424,0.0
51468.0,STARLINK-3174,PAYLOAD,2022-05-17 22:00:01,15.08874955,0.0001853,53.2205,47.0235,42.5345,346.2717,-0.003255,-0.00051769,0.0,0 STARLINK-3174,1 51468U 22010N   22137.91668981 -.00051769  00000-0 -32550-2 0  9999,2 51468  53.2205  47.0235 0001853  42.5345 346.2717 15.08874955  1300,6917.774,95.435,540.92,538.357,0.0
51468.0,STARLINK-3174,PAYLOAD,2022-05-18 14:00:01,15.08817999,0.0001807,53.2198,44.03,46.0921,5.8707,0.0025794,0.00040978,0.0,0 STARLINK-3174,1 51468U 22010N   22138.58334491  .00040978  00000-0  25794-2 0  9999,2 51468  53.2198  44.0300 0001807  46.0921   5.8707 15.08817999  1301,6917.948,95.439,541.063,538.563,0.0
51468.0,STARLINK-3174,PAYLOAD,2022-05-18 22:00:00,15.08859032,0.0001951,53.2198,42.535,46.6327,16.9168,-0.0045258999999999,-0.00071641,0.0,0 STARLINK-3174,1 51468U 22010N   22138.91667824 -.00071641  00000-0 -45259-2 0  9996,2 51468  53.2198  42.5350 0001951  46.6327  16.9168 15.08859032 17366,6917.821999999999,95.436,541.0369999999998,538.3380000000002,0.0
51468.0,STARLINK-3174,PAYLOAD,2022-05-19 14:00:01,15.08800615,0.000182,53.2191,39.5412,48.165,38.6063,0.003926,0.00062683,0.0,0 STARLINK-3174,1 51468U 22010N   22139.58335648  .00062683  00000-0  39260-2 0  9995,2 51468  53.2191  39.5412 0001820  48.1650  38.6063 15.08800615  1300,6918.001,95.44,541.125,538.607,0.0
51468.0,STARLINK-3174,PAYLOAD,2022-05-19 22:00:00,15.08866181,0.0001937,53.2192,38.0463,46.6235,51.6581,-0.0033412,-0.00053111,0.0,0 STARLINK-3174,1 51468U 22010N   22139.91667824 -.00053111  00000-0 -33412-2 0  9997,2 51468  53.2192  38.0463 0001937  46.6235  51.6581 15.08866181 17512,6917.8,95.436,541.005,538.325,0.0
51468.0,STARLINK-3174,PAYLOAD,2022-05-20 14:00:01,15.08838969,0.0001743,53.2188,35.0521,45.6058,75.8895,0.0007531,0.00011718,0.0,0 STARLINK-3174,1 51468U 22010N   22140.58334491  .00011718  00000-0  75310-3 0  9992,2 51468  53.2188  35.0521 0001743  45.6058  75.8895 15.08838969 17616,6917.884,95.438,540.9540000000002,538.543,0.0
51468.0,STARLINK-3174,PAYLOAD,2022-05-20 22:00:00,15.08863472,0.0001845,53.219,33.5572,42.5849,90.5049,-0.0033527,-0.00053287,0.0,0 STARLINK-3174,1 51468U 22010N   22140.91667824 -.00053287  00000-0 -33527-2 0  9990,2 51468  53.2190  33.5572 0001845  42.5849  90.5049 15.08863472  1306,6917.809,95.436,540.95,538.3969999999998,0.0
51468.0,STARLINK-3174,PAYLOAD,2022-05-21 06:00:00,15.08844512,0.0001922,53.2188,32.061,38.4879,106.2051,-0.0016742,-0.00026838,0.0,0 STARLINK-3174,1 51468U 22010N   22141.25001157 -.00026838  00000-0 -16742-2 0  9991,2 51468  53.2188  32.0610 0001922  38.4879 106.2051 15.08844512  1305,6917.8669999999975,95.437,541.061,538.4019999999998,0.0
51468.0,STARLINK-3174,PAYLOAD,2022-05-21 14:00:01,15.08805562,0.0001776,53.219,30.5628,44.8245,111.5324,0.00405,0.00064699,0.0,0 STARLINK-3174,1 51468U 22010N   22141.58335648  .00064699  00000-0  40500-2 0  9996,2 51468  53.2190  30.5628 0001776  44.8245 111.5324 15.08805562 17766,6917.986,95.44,541.0790000000002,538.622,0.0
51468.0,STARLINK-3174,PAYLOAD,2022-05-21 22:00:00,15.08850499,0.0001917,53.2193,29.068,42.1953,125.705,-0.0022328,-0.00035658,0.0,0 STARLINK-3174,1 51468U 22010N   22141.91667824 -.00035658  00000-0 -22328-2 0  9990,2 51468  53.2193  29.0680 0001917  42.1953 125.7050 15.08850499  1309,6917.848000000001,95.437,541.039,538.387,0.0
51468.0,STARLINK-3174,PAYLOAD,2022-05-22 06:00:00,15.08840489,0.0001999,53.2192,27.5717,39.8717,139.6108,-0.0019064,-0.00030502,0.0,0 STARLINK-3174,1 51468U 22010N   22142.25001157 -.00030502  00000-0 -19064-2 0  9995,2 51468  53.2192  27.5717 0001999  39.8717 139.6108 15.08840489 17867,6917.879,95.438,541.127,538.361,0.0
51468.0,STARLINK-3174,PAYLOAD,2022-05-22 14:00:01,15.08815248,0.0001925,53.2195,26.0738,47.5819,143.4828,0.00075213,0.00011694,0.0,0 STARLINK-3174,1 51468U 22010N   22142.58334491  .00011694  00000-0  75213-3 0  9999,2 51468  53.2195  26.0738 0001925  47.5819 143.4828 15.08815248  1304,6917.956,95.439,541.153,538.489,0.0
51468.0,STARLINK-3174,PAYLOAD,2022-05-22 22:00:01,15.08815723,0.0002154,53.2199,24.5791,46.8373,155.8721,0.00050946,7.824e-05,0.0,0 STARLINK-3174,1 51468U 22010N   22142.91668981  .00007824  00000-0  50946-3 0  9996,2 51468  53.2199  24.5791 0002154  46.8373 155.8721 15.08815723 17968,6917.955,95.439,541.31,538.3290000000002,0.0
51468.0,STARLINK-3174,PAYLOAD,2022-05-23 14:00:01,15.08841484,0.0002008,53.2202,21.585,49.6587,176.1463,0.00086521,0.00013509,0.0,0 STARLINK-3174,1 51468U 22010N   22143.58334491  .00013509  00000-0  86521-3 0  9991,2 51468  53.2202  21.5850 0002008  49.6587 176.1463 15.08841484  1305,6917.876,95.437,541.13,538.352,0.0
51468.0,STARLINK-3174,PAYLOAD,2022-05-23 22:00:01,15.08833359,0.0002103,53.2203,20.0903,44.9489,192.5284,0.00038375,5.823e-05,0.0,0 STARLINK-3174,1 51468U 22010N   22143.91668981  .00005823  00000-0  38375-3 0  9996,2 51468  53.2203  20.0903 0002103  44.9489 192.5284 15.08833359  1309,6917.901,95.438,541.221,538.311,0.0
51468.0,STARLINK-3174,PAYLOAD,2022-05-24 06:00:02,15.08870394,0.0002029,53.2202,18.5938,42.87,206.1847,-0.0031565,-0.00050217,0.0,0 STARLINK-3174,1 51468U 22010N   22144.25002315 -.00050217  00000-0 -31565-2 0  9999,2 51468  53.2202  18.5938 0002029  42.8700 206.1847 15.08870394 18167,6917.7869999999975,95.436,541.056,538.249,0.0
51468.0,STARLINK-3174,PAYLOAD,2022-05-24 14:00:01,15.08816662,0.0001806,53.2205,17.0962,46.3419,214.2592,0.0017399999999999,0.00027495,0.0,0 STARLINK-3174,1 51468U 22010N   22144.58334491  .00027495  00000-0  17400-2 0  9990,2 51468  53.2205  17.0962 0001806  46.3419 214.2592 15.08816662  1302,6917.9519999999975,95.439,541.066,538.567,0.0
